{
  "type": "FeatureCollection",
  "features": [
    {
      "type": "Feature",
      "properties": {
        "norad_id": 25590,
        "name": "COSMOS 2361",
        "group": "musson",
        "lat": 56.69320042548664,
        "lon": 149.62880260777823,
        "alt_km": 996.5260462431779,
        "timestamp": "2025-12-17T13:48:37.824691+00:00",
        "meta_object_name": "COSMOS 2361",
        "meta_object_id": "1998-076A",
        "meta_epoch": "2025-12-17T08:30:57.204000",
        "meta_mean_motion": 13.73218096,
        "meta_eccentricity": 0.00300983,
        "meta_inclination": 82.934,
        "meta_ra_of_asc_node": 340.6728,
        "meta_arg_of_pericenter": 252.226,
        "meta_mean_anomaly": 220.6318,
        "meta_ephemeris_type": 0,
        "meta_classification_type": "U",
        "meta_norad_cat_id": 25590,
        "meta_element_set_no": 999,
        "meta_rev_at_epoch": 35174,
        "meta_bstar": 6.8627038e-05,
        "meta_mean_motion_dot": 7.9e-07,
        "meta_mean_motion_ddot": 0,
        "tle_line1": "1 25590U 98076A   25351.35482875  .00000079  00000+0  68627-4 0  9997",
        "tle_line2": "2 25590  82.9340 340.6728 0030098 252.2260 220.6318 13.73218096351740"
      },
      "geometry": {
        "type": "Point",
        "coordinates": [
          149.62880260777823,
          56.69320042548664
        ]
      }
    },
    {
      "type": "Feature",
      "properties": {
        "norad_id": 26818,
        "name": "COSMOS 2378",
        "group": "musson",
        "lat": -31.510491582501313,
        "lon": -179.49581478621974,
        "alt_km": 968.1629742526511,
        "timestamp": "2025-12-17T13:48:37.824710+00:00",
        "meta_object_name": "COSMOS 2378",
        "meta_object_id": "2001-023A",
        "meta_epoch": "2025-12-17T07:35:41.913312",
        "meta_mean_motion": 13.74142403,
        "meta_eccentricity": 0.00326836,
        "meta_inclination": 82.9272,
        "meta_ra_of_asc_node": 356.3311,
        "meta_arg_of_pericenter": 191.9853,
        "meta_mean_anomaly": 179.1289,
        "meta_ephemeris_type": 0,
        "meta_classification_type": "U",
        "meta_norad_cat_id": 26818,
        "meta_element_set_no": 999,
        "meta_rev_at_epoch": 22986,
        "meta_bstar": 5.3605134e-05,
        "meta_mean_motion_dot": 6.6e-07,
        "meta_mean_motion_ddot": 0,
        "tle_line1": "1 26818U 01023A   25351.31645733  .00000066  00000+0  53605-4 0  9993",
        "tle_line2": "2 26818  82.9272 356.3311 0032683 191.9853 179.1289 13.74142403229860"
      },
      "geometry": {
        "type": "Point",
        "coordinates": [
          -179.49581478621974,
          -31.510491582501313
        ]
      }
    },
    {
      "type": "Feature",
      "properties": {
        "norad_id": 27436,
        "name": "COSMOS 2389",
        "group": "musson",
        "lat": 74.62347507570759,
        "lon": -29.85539207400673,
        "alt_km": 943.346740217904,
        "timestamp": "2025-12-17T13:48:37.824722+00:00",
        "meta_object_name": "COSMOS 2389",
        "meta_object_id": "2002-026A",
        "meta_epoch": "2025-12-17T07:16:42.364704",
        "meta_mean_motion": 13.75155192,
        "meta_eccentricity": 0.00474847,
        "meta_inclination": 82.9506,
        "meta_ra_of_asc_node": 303.6063,
        "meta_arg_of_pericenter": 48.3429,
        "meta_mean_anomaly": 121.0907,
        "meta_ephemeris_type": 0,
        "meta_classification_type": "U",
        "meta_norad_cat_id": 27436,
        "meta_element_set_no": 999,
        "meta_rev_at_epoch": 18211,
        "meta_bstar": 4.2952547e-05,
        "meta_mean_motion_dot": 5.7e-07,
        "meta_mean_motion_ddot": 0,
        "tle_line1": "1 27436U 02026A   25351.30326811  .00000057  00000+0  42953-4 0  9990",
        "tle_line2": "2 27436  82.9506 303.6063 0047484  48.3429 121.0907 13.75155192182114"
      },
      "geometry": {
        "type": "Point",
        "coordinates": [
          -29.85539207400673,
          74.62347507570759
        ]
      }
    },
    {
      "type": "Feature",
      "properties": {
        "norad_id": 27818,
        "name": "COSMOS 2398",
        "group": "musson",
        "lat": -19.68837279860875,
        "lon": -93.40349713876078,
        "alt_km": 1007.5591846823945,
        "timestamp": "2025-12-17T13:48:37.824734+00:00",
        "meta_object_name": "COSMOS 2398",
        "meta_object_id": "2003-023A",
        "meta_epoch": "2025-12-17T07:28:07.757760",
        "meta_mean_motion": 13.72386161,
        "meta_eccentricity": 0.00327048,
        "meta_inclination": 82.9484,
        "meta_ra_of_asc_node": 269.3296,
        "meta_arg_of_pericenter": 99.5637,
        "meta_mean_anomaly": 16.281,
        "meta_ephemeris_type": 0,
        "meta_classification_type": "U",
        "meta_norad_cat_id": 27818,
        "meta_element_set_no": 999,
        "meta_rev_at_epoch": 12879,
        "meta_bstar": 3.662827e-05,
        "meta_mean_motion_dot": 4.9e-07,
        "meta_mean_motion_ddot": 0,
        "tle_line1": "1 27818U 03023A   25351.31120090  .00000049  00000+0  36628-4 0  9997",
        "tle_line2": "2 27818  82.9484 269.3296 0032704  99.5637  16.2810 13.72386161128798"
      },
      "geometry": {
        "type": "Point",
        "coordinates": [
          -93.40349713876078,
          -19.68837279860875
        ]
      }
    },
    {
      "type": "Feature",
      "properties": {
        "norad_id": 28380,
        "name": "COSMOS 2407",
        "group": "musson",
        "lat": -63.595712324328076,
        "lon": 43.72345400185386,
        "alt_km": 1011.4114006314794,
        "timestamp": "2025-12-17T13:48:37.824745+00:00",
        "meta_object_name": "COSMOS 2407",
        "meta_object_id": "2004-028A",
        "meta_epoch": "2025-12-17T08:13:53.408064",
        "meta_mean_motion": 13.76314225,
        "meta_eccentricity": 0.00401449,
        "meta_inclination": 82.9601,
        "meta_ra_of_asc_node": 209.4845,
        "meta_arg_of_pericenter": 42.3249,
        "meta_mean_anomaly": 131.1674,
        "meta_ephemeris_type": 0,
        "meta_classification_type": "U",
        "meta_norad_cat_id": 28380,
        "meta_element_set_no": 999,
        "meta_rev_at_epoch": 7486,
        "meta_bstar": 7.1950589e-05,
        "meta_mean_motion_dot": 8.6e-07,
        "meta_mean_motion_ddot": 0,
        "tle_line1": "1 28380U 04028A   25351.34297926  .00000086  00000+0  71951-4 0  9993",
        "tle_line2": "2 28380  82.9601 209.4845 0040144  42.3249 131.1674 13.76314225 74860"
      },
      "geometry": {
        "type": "Point",
        "coordinates": [
          43.72345400185386,
          -63.595712324328076
        ]
      }
    },
    {
      "type": "Feature",
      "properties": {
        "norad_id": 28521,
        "name": "COSMOS 2414",
        "group": "musson",
        "lat": -10.80488680193413,
        "lon": 179.6497072741175,
        "alt_km": 962.1216198309003,
        "timestamp": "2025-12-17T13:48:37.824756+00:00",
        "meta_object_name": "COSMOS 2414",
        "meta_object_id": "2005-002A",
        "meta_epoch": "2025-12-17T01:45:05.719104",
        "meta_mean_motion": 13.87903569,
        "meta_eccentricity": 0.00411226,
        "meta_inclination": 82.9489,
        "meta_ra_of_asc_node": 181.3832,
        "meta_arg_of_pericenter": 127.5945,
        "meta_mean_anomaly": 232.8964,
        "meta_ephemeris_type": 0,
        "meta_classification_type": "U",
        "meta_norad_cat_id": 28521,
        "meta_element_set_no": 999,
        "meta_rev_at_epoch": 5855,
        "meta_bstar": 6.5073417e-05,
        "meta_mean_motion_dot": 9.4e-07,
        "meta_mean_motion_ddot": 0,
        "tle_line1": "1 28521U 05002A   25351.07298286  .00000094  00000+0  65073-4 0  9990",
        "tle_line2": "2 28521  82.9489 181.3832 0041122 127.5945 232.8964 13.87903569 58557"
      },
      "geometry": {
        "type": "Point",
        "coordinates": [
          179.6497072741175,
          -10.80488680193413
        ]
      }
    },
    {
      "type": "Feature",
      "properties": {
        "norad_id": 32052,
        "name": "COSMOS 2429",
        "group": "musson",
        "lat": -78.96152188911404,
        "lon": -161.0895011730867,
        "alt_km": 1004.1349718131751,
        "timestamp": "2025-12-17T13:48:37.824766+00:00",
        "meta_object_name": "COSMOS 2429",
        "meta_object_id": "2007-038A",
        "meta_epoch": "2025-12-17T07:18:11.663424",
        "meta_mean_motion": 13.75149867,
        "meta_eccentricity": 0.00389971,
        "meta_inclination": 82.9804,
        "meta_ra_of_asc_node": 339.9435,
        "meta_arg_of_pericenter": 25.3705,
        "meta_mean_anomaly": 334.9355,
        "meta_ephemeris_type": 0,
        "meta_classification_type": "U",
        "meta_norad_cat_id": 32052,
        "meta_element_set_no": 999,
        "meta_rev_at_epoch": 91665,
        "meta_bstar": 5.8320523e-05,
        "meta_mean_motion_dot": 7.1e-07,
        "meta_mean_motion_ddot": 0,
        "tle_line1": "1 32052U 07038A   25351.30430166  .00000071  00000+0  58321-4 0  9999",
        "tle_line2": "2 32052  82.9804 339.9435 0038997  25.3705 334.9355 13.75149867916659"
      },
      "geometry": {
        "type": "Point",
        "coordinates": [
          -161.0895011730867,
          -78.96152188911404
        ]
      }
    },
    {
      "type": "Feature",
      "properties": {
        "norad_id": 35635,
        "name": "COSMOS 2454",
        "group": "musson",
        "lat": 73.45923477248353,
        "lon": -170.41615744008837,
        "alt_km": 907.4429251228257,
        "timestamp": "2025-12-17T13:48:37.824776+00:00",
        "meta_object_name": "COSMOS 2454",
        "meta_object_id": "2009-039A",
        "meta_epoch": "2025-12-17T00:10:12.122400",
        "meta_mean_motion": 13.89929157,
        "meta_eccentricity": 0.002036,
        "meta_inclination": 82.9553,
        "meta_ra_of_asc_node": 165.4099,
        "meta_arg_of_pericenter": 62.3377,
        "meta_mean_anomaly": 50.3631,
        "meta_ephemeris_type": 0,
        "meta_classification_type": "U",
        "meta_norad_cat_id": 35635,
        "meta_element_set_no": 999,
        "meta_rev_at_epoch": 83209,
        "meta_bstar": 5.4153071e-05,
        "meta_mean_motion_dot": 8.3e-07,
        "meta_mean_motion_ddot": 0,
        "tle_line1": "1 35635U 09039A   25351.00708475  .00000083  00000+0  54153-4 0  9992",
        "tle_line2": "2 35635  82.9553 165.4099 0020360  62.3377  50.3631 13.89929157832093"
      },
      "geometry": {
        "type": "Point",
        "coordinates": [
          -170.41615744008837,
          73.45923477248353
        ]
      }
    },
    {
      "type": "Feature",
      "properties": {
        "norad_id": 36519,
        "name": "COSMOS 2463",
        "group": "musson",
        "lat": 22.66551678625939,
        "lon": -159.79845245658515,
        "alt_km": 1004.8137696828726,
        "timestamp": "2025-12-17T13:48:37.824786+00:00",
        "meta_object_name": "COSMOS 2463",
        "meta_object_id": "2010-017A",
        "meta_epoch": "2025-12-17T07:50:49.275744",
        "meta_mean_motion": 13.71649548,
        "meta_eccentricity": 0.00347319,
        "meta_inclination": 82.9609,
        "meta_ra_of_asc_node": 23.3416,
        "meta_arg_of_pericenter": 274.8255,
        "meta_mean_anomaly": 96.2972,
        "meta_ephemeris_type": 0,
        "meta_classification_type": "U",
        "meta_norad_cat_id": 36519,
        "meta_element_set_no": 999,
        "meta_rev_at_epoch": 78300,
        "meta_bstar": 6.2012018e-05,
        "meta_mean_motion_dot": 7.1e-07,
        "meta_mean_motion_ddot": 0,
        "tle_line1": "1 36519U 10017A   25351.32695921  .00000071  00000+0  62012-4 0  9998",
        "tle_line2": "2 36519  82.9609  23.3416 0034731 274.8255  96.2972 13.71649548783001"
      },
      "geometry": {
        "type": "Point",
        "coordinates": [
          -159.79845245658515,
          22.66551678625939
        ]
      }
    }
  ]
}